{
  "type": "FeatureCollection",
  "features": [
    {
      "type": "Feature",
      "properties": {
        "norad_id": 66520,
        "name": "STARLINK-35952",
        "group": "last-30-days",
        "lat": -18.87207048763141,
        "lon": -78.90346093358954,
        "alt_km": 396.8838705650942,
        "timestamp": "2025-12-08T08:58:59.556810+00:00",
        "meta_object_name": "STARLINK-35952",
        "meta_object_id": "2025-265E",
        "meta_epoch": "2025-12-07T22:00:03.000096",
        "meta_mean_motion": 15.59422974,
        "meta_eccentricity": 0.000131,
        "meta_inclination": 43.0003,
        "meta_ra_of_asc_node": 82.285,
        "meta_arg_of_pericenter": 286.8728,
        "meta_mean_anomaly": 231.0682,
        "meta_ephemeris_type": 0,
        "meta_classification_type": "U",
        "meta_norad_cat_id": 66520,
        "meta_element_set_no": 999,
        "meta_rev_at_epoch": 421,
        "meta_bstar": -0.028497623,
        "meta_mean_motion_dot": -0.02028006,
        "meta_mean_motion_ddot": 0,
        "tle_line1": "1 66520U 25265E   25341.91670139 -.02028006  00000+0 -28498-1 0  9991",
        "tle_line2": "2 66520  43.0003  82.2850 0001310 286.8728 231.0682 15.59422974  4219"
      },
      "geometry": {
        "type": "Point",
        "coordinates": [
          -78.90346093358954,
          -18.87207048763141
        ]
      }
    },
    {
      "type": "Feature",
      "properties": {
        "norad_id": 66521,
        "name": "STARLINK-35915",
        "group": "last-30-days",
        "lat": -20.079092306618325,
        "lon": -77.33298098310892,
        "alt_km": 396.9727976484892,
        "timestamp": "2025-12-08T08:58:59.556820+00:00",
        "meta_object_name": "STARLINK-35915",
        "meta_object_id": "2025-265F",
        "meta_epoch": "2025-12-07T22:00:03.000096",
        "meta_mean_motion": 15.59424203,
        "meta_eccentricity": 0.00013895,
        "meta_inclination": 43.0002,
        "meta_ra_of_asc_node": 82.2801,
        "meta_arg_of_pericenter": 288.0535,
        "meta_mean_anomaly": 231.8031,
        "meta_ephemeris_type": 0,
        "meta_classification_type": "U",
        "meta_norad_cat_id": 66521,
        "meta_element_set_no": 999,
        "meta_rev_at_epoch": 421,
        "meta_bstar": -0.028523511,
        "meta_mean_motion_dot": -0.02029758,
        "meta_mean_motion_ddot": 0,
        "tle_line1": "1 66521U 25265F   25341.91670139 -.02029758  00000+0 -28524-1 0  9997",
        "tle_line2": "2 66521  43.0002  82.2801 0001389 288.0535 231.8031 15.59424203  4214"
      },
      "geometry": {
        "type": "Point",
        "coordinates": [
          -77.33298098310892,
          -20.079092306618325
        ]
      }
    },
    {
      "type": "Feature",
      "properties": {
        "norad_id": 66522,
        "name": "STARLINK-35946",
        "group": "last-30-days",
        "lat": -21.273316459327116,
        "lon": -75.73628773076408,
        "alt_km": 397.0566928856024,
        "timestamp": "2025-12-08T08:58:59.556832+00:00",
        "meta_object_name": "STARLINK-35946",
        "meta_object_id": "2025-265G",
        "meta_epoch": "2025-12-07T22:00:03.000096",
        "meta_mean_motion": 15.59422945,
        "meta_eccentricity": 0.00013691,
        "meta_inclination": 43.0002,
        "meta_ra_of_asc_node": 82.2753,
        "meta_arg_of_pericenter": 289.0178,
        "meta_mean_anomaly": 232.756,
        "meta_ephemeris_type": 0,
        "meta_classification_type": "U",
        "meta_norad_cat_id": 66522,
        "meta_element_set_no": 999,
        "meta_rev_at_epoch": 421,
        "meta_bstar": -0.028490822,
        "meta_mean_motion_dot": -0.02027625,
        "meta_mean_motion_ddot": 0,
        "tle_line1": "1 66522U 25265G   25341.91670139 -.02027625  00000+0 -28491-1 0  9992",
        "tle_line2": "2 66522  43.0002  82.2753 0001369 289.0178 232.7560 15.59422945  4211"
      },
      "geometry": {
        "type": "Point",
        "coordinates": [
          -75.73628773076408,
          -21.273316459327116
        ]
      }
    },
    {
      "type": "Feature",
      "properties": {
        "norad_id": 66523,
        "name": "STARLINK-35969",
        "group": "last-30-days",
        "lat": -22.452461886550076,
        "lon": -74.11322405862452,
        "alt_km": 397.0402571856357,
        "timestamp": "2025-12-08T08:58:59.556843+00:00",
        "meta_object_name": "STARLINK-35969",
        "meta_object_id": "2025-265H",
        "meta_epoch": "2025-12-07T22:00:03.000096",
        "meta_mean_motion": 15.59422493,
        "meta_eccentricity": 0.00013672,
        "meta_inclination": 43.0004,
        "meta_ra_of_asc_node": 82.2706,
        "meta_arg_of_pericenter": 285.9376,
        "meta_mean_anomaly": 237.7543,
        "meta_ephemeris_type": 0,
        "meta_classification_type": "U",
        "meta_norad_cat_id": 66523,
        "meta_element_set_no": 999,
        "meta_rev_at_epoch": 421,
        "meta_bstar": -0.028488776,
        "meta_mean_motion_dot": -0.02027466,
        "meta_mean_motion_ddot": 0,
        "tle_line1": "1 66523U 25265H   25341.91670139 -.02027466  00000+0 -28489-1 0  9993",
        "tle_line2": "2 66523  43.0004  82.2706 0001367 285.9376 237.7543 15.59422493  4219"
      },
      "geometry": {
        "type": "Point",
        "coordinates": [
          -74.11322405862452,
          -22.452461886550076
        ]
      }
    },
    {
      "type": "Feature",
      "properties": {
        "norad_id": 66524,
        "name": "STARLINK-35687",
        "group": "last-30-days",
        "lat": -23.6159686967398,
        "lon": -72.46126231112103,
        "alt_km": 397.0295566853083,
        "timestamp": "2025-12-08T08:58:59.556855+00:00",
        "meta_object_name": "STARLINK-35687",
        "meta_object_id": "2025-265J",
        "meta_epoch": "2025-12-07T22:00:03.000096",
        "meta_mean_motion": 15.59423011,
        "meta_eccentricity": 0.00012729,
        "meta_inclination": 43.0004,
        "meta_ra_of_asc_node": 82.2655,
        "meta_arg_of_pericenter": 282.3788,
        "meta_mean_anomaly": 243.2301,
        "meta_ephemeris_type": 0,
        "meta_classification_type": "U",
        "meta_norad_cat_id": 66524,
        "meta_element_set_no": 999,
        "meta_rev_at_epoch": 421,
        "meta_bstar": -0.028486328,
        "meta_mean_motion_dot": -0.02027279,
        "meta_mean_motion_ddot": 0,
        "tle_line1": "1 66524U 25265J   25341.91670139 -.02027279  00000+0 -28486-1 0  9993",
        "tle_line2": "2 66524  43.0004  82.2655 0001272 282.3788 243.2301 15.59423011  4217"
      },
      "geometry": {
        "type": "Point",
        "coordinates": [
          -72.46126231112103,
          -23.6159686967398
        ]
      }
    },
    {
      "type": "Feature",
      "properties": {
        "norad_id": 66525,
        "name": "STARLINK-35975",
        "group": "last-30-days",
        "lat": -24.758583848741445,
        "lon": -70.78370537960512,
        "alt_km": 397.18452360858373,
        "timestamp": "2025-12-08T08:58:59.556865+00:00",
        "meta_object_name": "STARLINK-35975",
        "meta_object_id": "2025-265K",
        "meta_epoch": "2025-12-07T22:00:03.000096",
        "meta_mean_motion": 15.59422398,
        "meta_eccentricity": 0.00013239,
        "meta_inclination": 43.0003,
        "meta_ra_of_asc_node": 82.2609,
        "meta_arg_of_pericenter": 287.4431,
        "meta_mean_anomaly": 240.0818,
        "meta_ephemeris_type": 0,
        "meta_classification_type": "U",
        "meta_norad_cat_id": 66525,
        "meta_element_set_no": 999,
        "meta_rev_at_epoch": 421,
        "meta_bstar": -0.028472615,
        "meta_mean_motion_dot": -0.02026423,
        "meta_mean_motion_ddot": 0,
        "tle_line1": "1 66525U 25265K   25341.91670139 -.02026423  00000+0 -28473-1 0  9990",
        "tle_line2": "2 66525  43.0003  82.2609 0001323 287.4431 240.0818 15.59422398  4219"
      },
      "geometry": {
        "type": "Point",
        "coordinates": [
          -70.78370537960512,
          -24.758583848741445
        ]
      }
    },
    {
      "type": "Feature",
      "properties": {
        "norad_id": 66526,
        "name": "STARLINK-35932",
        "group": "last-30-days",
        "lat": -25.883518921379576,
        "lon": -69.0731406751273,
        "alt_km": 397.20768937865523,
        "timestamp": "2025-12-08T08:58:59.556875+00:00",
        "meta_object_name": "STARLINK-35932",
        "meta_object_id": "2025-265L",
        "meta_epoch": "2025-12-07T22:00:03.000096",
        "meta_mean_motion": 15.59422333,
        "meta_eccentricity": 0.0001333,
        "meta_inclination": 43.0003,
        "meta_ra_of_asc_node": 82.2562,
        "meta_arg_of_pericenter": 286.4057,
        "meta_mean_anomaly": 243.0374,
        "meta_ephemeris_type": 0,
        "meta_classification_type": "U",
        "meta_norad_cat_id": 66526,
        "meta_element_set_no": 999,
        "meta_rev_at_epoch": 411,
        "meta_bstar": -0.028489602,
        "meta_mean_motion_dot": -0.02027481,
        "meta_mean_motion_ddot": 0,
        "tle_line1": "1 66526U 25265L   25341.91670139 -.02027481  00000+0 -28490-1 0  9995",
        "tle_line2": "2 66526  43.0003  82.2562 0001333 286.4057 243.0374 15.59422333  4110"
      },
      "geometry": {
        "type": "Point",
        "coordinates": [
          -69.0731406751273,
          -25.883518921379576
        ]
      }
    }
  ]
}